NORAD_CAT_ID,OBJECT_NAME,OBJECT_TYPE,EPOCH,MEAN_MOTION,ECCENTRICITY,INCLINATION,RA_OF_ASC_NODE,ARG_OF_PERICENTER,MEAN_ANOMALY,BSTAR,MEAN_MOTION_DOT,MEAN_MOTION_DDOT,TLE_LINE0,TLE_LINE1,TLE_LINE2,SEMIMAJOR_AXIS,PERIOD,APOGEE,PERIGEE,DECAYED
54810.0,STARLINK-5408,PAYLOAD,2023-05-27 08:22:04,15.08828457,7.9e-05,53.2174,271.2663,123.049,237.0578,5.7295e-05,6.24e-06,0.0,0 STARLINK-5408,1 54810U 22175BE  23147.34866102  .00000624  00000-0  57295-4 0  9996,2 54810  53.2174 271.2663 0000790 123.0490 237.0578 15.08828457 24459,6917.916,95.438,540.327,539.234,0.0
54810.0,STARLINK-5408,PAYLOAD,2023-05-27 14:43:36,15.08841521,0.0001075,53.2184,270.0798,107.3272,252.7838,-4.728e-05,-1.04e-05,0.0,0 STARLINK-5408,1 54810U 22175BE  23147.61361830 -.00001040  00000-0 -47280-4 0  9992,2 54810  53.2184 270.0798 0001075 107.3272 252.7838 15.08841521 24490,6917.876,95.437,540.484,538.997,0.0
54810.0,STARLINK-5408,PAYLOAD,2023-05-28 14:34:23,15.08844964,0.0001005,53.2177,265.6203,92.631,267.4797,1.5391e-05,-4.3e-07,0.0,0 STARLINK-5408,1 54810U 22175BE  23148.60721399 -.00000043  00000-0  15391-4 0  9991,2 54810  53.2177 265.6203 0001005  92.6310 267.4797 15.08844964 26803,6917.865,95.437,540.425,539.035,0.0
54810.0,STARLINK-5408,PAYLOAD,2023-05-29 12:49:47,15.0883861,0.0001042,53.2177,261.4582,95.0486,265.0626,2.7191e-05,1.45e-06,0.0,0 STARLINK-5408,1 54810U 22175BE  23149.53457671  .00000145  00000-0  27191-4 0  9996,2 54810  53.2177 261.4582 0001042  95.0486 265.0626 15.08838610 26940,6917.885,95.438,540.47,539.029,0.0
54810.0,STARLINK-5408,PAYLOAD,2023-05-29 17:35:56,15.08850399,0.0001333,53.2175,260.5645,107.7685,252.3453,-8.1326e-05,-1.582e-05,0.0,0 STARLINK-5408,1 54810U 22175BE  23149.73329218 -.00001582  00000-0 -81326-4 0  9991,2 54810  53.2175 260.5645 0001333 107.7685 252.3453 15.08850399 24812,6917.849,95.437,540.636,538.791,0.0
54810.0,STARLINK-5408,PAYLOAD,2023-05-30 11:05:11,15.08835062,0.0001165,53.2174,257.2905,113.2831,246.8283,-8.7066e-05,-1.673e-05,0.0,0 STARLINK-5408,1 54810U 22175BE  23150.46194372 -.00001673  00000-0 -87066-4 0  9992,2 54810  53.2174 257.2905 0001165 113.2831 246.8283 15.08835062 27082,6917.895,95.438,540.566,538.955,0.0
54810.0,STARLINK-5408,PAYLOAD,2023-05-30 14:15:58,15.08835696,0.0001049,53.2174,256.6955,103.3,256.8109,-8.2686e-05,-1.603e-05,0.0,0 STARLINK-5408,1 54810U 22175BE  23150.59442376 -.00001603  00000-0 -82686-4 0  9992,2 54810  53.2174 256.6955 0001049 103.3000 256.8109 15.08835696 24942,6917.894,95.438,540.484,539.033,0.0
54810.0,STARLINK-5408,PAYLOAD,2023-05-30 23:48:16,15.08839417,9.16e-05,53.2169,254.9096,82.5331,277.5765,7.0008e-06,-1.76e-06,0.0,0 STARLINK-5408,1 54810U 22175BE  23150.99185880 -.00000176  00000-0  70008-5 0  9999,2 54810  53.2169 254.9096 0000916  82.5331 277.5765 15.08839417 25001,6917.882,95.438,540.381,539.113,0.0
54810.0,STARLINK-5408,PAYLOAD,2023-05-31 14:06:44,15.08842912,0.0001053,53.2175,252.2417,114.9098,245.2004,-4.5929e-05,-1.019e-05,0.0,0 STARLINK-5408,1 54810U 22175BE  23151.58801991 -.00001019  00000-0 -45929-4 0  9994,2 54810  53.2175 252.2417 0001053 114.9098 245.2004 15.08842912 27250,6917.871,95.437,540.465,539.008,0.0
54810.0,STARLINK-5408,PAYLOAD,2023-05-31 15:42:07,15.08844527,0.0001441,53.2179,251.9449,131.4542,228.6574,-2.7082e-05,-7.19e-06,0.0,0 STARLINK-5408,1 54810U 22175BE  23151.65425760 -.00000719  00000-0 -27082-4 0  9994,2 54810  53.2179 251.9449 0001441 131.4542 228.6574 15.08844527 27266,6917.867,95.437,540.728,538.735,0.0
54810.0,STARLINK-5408,PAYLOAD,2023-06-01 10:46:46,15.08828764,6.53e-05,53.2168,248.3776,96.2132,263.8934,-4.5358e-05,-1.009e-05,0.0,0 STARLINK-5408,1 54810U 22175BE  23152.44915109 -.00001009  00000-0 -45358-4 0  9992,2 54810  53.2168 248.3776 0000653  96.2132 263.8934 15.08828764 27383,6917.915,95.438,540.231,539.328,0.0
54810.0,STARLINK-5408,PAYLOAD,2023-06-01 23:29:51,15.08837318,9.34e-05,53.2164,245.9974,81.6817,278.4281,2.2998e-05,7.8e-07,0.0,0 STARLINK-5408,1 54810U 22175BE  23152.97906582  .00000078  00000-0  22998-4 0  9993,2 54810  53.2164 245.9974 0000934  81.6817 278.4281 15.08837318 25304,6917.889,95.438,540.4,539.107,0.0
54810.0,STARLINK-5408,PAYLOAD,2023-06-02 10:37:34,15.08827947,9.02e-05,53.2168,243.9157,82.966,277.1435,-4.9496e-05,-1.075e-05,0.0,0 STARLINK-5408,1 54810U 22175BE  23153.44275608 -.00001075  00000-0 -49496-4 0  9996,2 54810  53.2168 243.9157 0000902  82.9660 277.1435 15.08827947 25375,6917.917,95.438,540.406,539.158,0.0
54810.0,STARLINK-5408,PAYLOAD,2023-06-02 13:48:20,15.08835625,8.56e-05,53.2172,243.3194,92.685,267.424,-5.7579e-05,-1.204e-05,0.0,0 STARLINK-5408,1 54810U 22175BE  23153.57523221 -.00001204  00000-0 -57579-4 0  9992,2 54810  53.2172 243.3194 0000856  92.6850 267.4240 15.08835625 27552,6917.894,95.438,540.351,539.167,0.0
54810.0,STARLINK-5408,PAYLOAD,2023-06-03 12:03:43,15.08846524,9.27e-05,53.2171,239.1561,79.0703,281.0394,6.7343e-05,7.84e-06,0.0,0 STARLINK-5408,1 54810U 22175BE  23154.50258175  .00000784  00000-0  67343-4 0  9999,2 54810  53.2171 239.1561 0000927  79.0703 281.0394 15.08846524 27694,6917.86,95.437,540.367,539.084,0.0
54810.0,STARLINK-5408,PAYLOAD,2023-06-03 15:14:29,15.08848897,9.41e-05,53.2172,238.5609,80.8459,279.264,8.4772e-05,1.062e-05,0.0,0 STARLINK-5408,1 54810U 22175BE  23154.63505897  .00001062  00000-0  84772-4 0  9994,2 54810  53.2172 238.5609 0000941  80.8459 279.2640 15.08848897 25556,6917.853,95.437,540.369,539.067,0.0
54810.0,STARLINK-5408,PAYLOAD,2023-06-03 23:11:25,15.08838937,0.0001003,53.2175,237.07,105.2678,254.8425,2.4038e-05,9.5e-07,0.0,0 STARLINK-5408,1 54810U 22175BE  23154.96626543  .00000095  00000-0  24038-4 0  9996,2 54810  53.2175 237.0700 0001003 105.2678 254.8425 15.08838937 25600,6917.884,95.438,540.443,539.055,0.0
54810.0,STARLINK-5408,PAYLOAD,2023-06-04 11:54:30,15.08838807,8.29e-05,53.2172,234.6947,90.9794,269.1293,1.5592e-05,-4e-07,0.0,0 STARLINK-5408,1 54810U 22175BE  23155.49618742 -.00000040  00000-0  15592-4 0  9993,2 54810  53.2172 234.6947 0000829  90.9794 269.1293 15.08838807 27843,6917.884,95.438,540.323,539.176,0.0
54810.0,STARLINK-5408,PAYLOAD,2023-06-04 15:05:16,15.08837046,9.14e-05,53.218,234.1014,79.9524,280.1571,6.6282e-05,7.67e-06,0.0,0 STARLINK-5408,1 54810U 22175BE  23155.62866688  .00000767  00000-0  66282-4 0  9999,2 54810  53.2180 234.1014 0000914  79.9524 280.1571 15.08837046 27863,6917.889,95.438,540.387,539.122,0.0
54810.0,STARLINK-5408,PAYLOAD,2023-06-05 00:37:35,15.08840892,9.05e-05,53.2176,232.3177,81.7084,278.4011,-2.5272e-07,-2.92e-06,0.0,0 STARLINK-5408,1 54810U 22175BE  23156.02610641 -.00000292  00000-0 -25272-6 0  9991,2 54810  53.2176 232.3177 0000905  81.7084 278.4011 15.08840892 25769,6917.878,95.437,540.369,539.117,0.0
54810.0,STARLINK-5408,PAYLOAD,2023-06-05 11:45:17,15.08848243,8.57e-05,53.217,230.2358,78.9307,281.1781,-7.5596e-06,-4.08e-06,0.0,0 STARLINK-5408,1 54810U 22175BE  23156.48978111 -.00000408  00000-0 -75596-5 0  9992,2 54810  53.2170 230.2358 0000857  78.9307 281.1781 15.08848243 27993,6917.855,95.437,540.313,539.127,0.0
54810.0,STARLINK-5408,PAYLOAD,2023-06-05 14:56:03,15.0884963,8.62e-05,53.217,229.6403,81.056,279.0529,-3.8464e-06,-3.49e-06,0.0,0 STARLINK-5408,1 54810U 22175BE  23156.62225927 -.00000349  00000-0 -38464-5 0  9995,2 54810  53.2170 229.6403 0000862  81.0560 279.0529 15.08849630 28019,6917.851,95.437,540.312,539.12,0.0
54810.0,STARLINK-5408,PAYLOAD,2023-06-06 08:25:18,15.08831237,7.96e-05,53.2168,226.3685,84.693,275.4153,-3.8457e-06,-3.49e-06,0.0,0 STARLINK-5408,1 54810U 22175BE  23157.35091046 -.00000349  00000-0 -38457-5 0  9991,2 54810  53.2168 226.3685 0000796  84.6930 275.4153 15.08831237 25966,6917.907,95.438,540.323,539.222,0.0
54810.0,STARLINK-5408,PAYLOAD,2023-06-06 10:00:41,15.08833484,8.45e-05,53.2164,226.0716,85.5183,274.5906,-1.4218e-06,-3.1e-06,0.0,0 STARLINK-5408,1 54810U 22175BE  23157.41714935 -.00000310  00000-0 -14218-5 0  9994,2 54810  53.2164 226.0716 0000845  85.5183 274.5906 15.08833484 28133,6917.9,95.438,540.35,539.181,0.0
54810.0,STARLINK-5408,PAYLOAD,2023-06-06 13:11:27,15.08836987,7.25e-05,53.2167,225.4781,74.72,285.3872,1.253e-05,-8.8e-07,0.0,0 STARLINK-5408,1 54810U 22175BE  23157.54962696 -.00000088  00000-0  12530-4 0  9992,2 54810  53.2167 225.4781 0000725  74.7200 285.3872 15.08836987 28153,6917.89,95.438,540.256,539.253,0.0
54810.0,STARLINK-5408,PAYLOAD,2023-06-07 13:02:14,15.08840687,8.97e-05,53.2167,221.0185,83.917,276.1924,-1.0467e-05,-4.54e-06,0.0,0 STARLINK-5408,1 54810U 22175BE  23158.54322742 -.00000454  00000-0 -10467-4 0  9990,2 54810  53.2167 221.0185 0000897  83.9170 276.1924 15.08840687 28306,6917.878,95.438,540.364,539.123,0.0
54810.0,STARLINK-5408,PAYLOAD,2023-06-07 20:59:10,15.08837954,9.18e-05,53.2168,219.5318,85.8061,274.3036,-2.9909e-05,-7.64e-06,0.0,0 STARLINK-5408,1 54810U 22175BE  23158.87443018 -.00000764  00000-0 -29909-4 0  9991,2 54810  53.2168 219.5318 0000918  85.8061 274.3036 15.08837954 28353,6917.887,95.438,540.387,539.117,0.0
54810.0,STARLINK-5408,PAYLOAD,2023-06-08 09:42:16,15.08834974,0.0001021,53.2171,217.1529,89.2514,270.8595,1.0902e-05,-1.14e-06,0.0,0 STARLINK-5408,1 54810U 22175BE  23159.40435241 -.00000114  00000-0  10902-4 0  9991,2 54810  53.2171 217.1529 0001021  89.2514 270.8595 15.08834974 26271,6917.896,95.438,540.467,539.054,0.0
54810.0,STARLINK-5408,PAYLOAD,2023-06-08 12:53:02,15.08836419,0.0001006,53.2168,216.5578,85.4545,274.6562,3.7881e-05,3.15e-06,0.0,0 STARLINK-5408,1 54810U 22175BE  23159.53683083  .00000315  00000-0  37881-4 0  9991,2 54810  53.2168 216.5578 0001006  85.4545 274.6562 15.08836419 28453,6917.891,95.438,540.452,539.06,0.0
54810.0,STARLINK-5408,PAYLOAD,2023-06-09 12:43:48,15.0884424,9.57e-05,53.216,212.0962,83.8411,276.269,3.4571e-05,2.63e-06,0.0,0 STARLINK-5408,1 54810U 22175BE  23160.53042631  .00000263  00000-0  34571-4 0  9996,2 54810  53.2160 212.0962 0000957  83.8411 276.2690 15.08844240 28609,6917.867,95.437,540.394,539.07,0.0
